ALOS (DAICHI)           
1 28931U 06002A   26117.31161072  .00001259  00000+0  21849-3 0  9992
2 28931  98.1290  73.0534 0001959 102.8377 257.3048 14.69942913 80621
H-2A R/B                
1 28932U 06002B   26117.28973997  .00010707  00000+0  52039-3 0  9999
2 28932  98.2498 268.5606 0052411  76.8225 283.8847 15.17413170101802
RESURS-DK 1             
1 29228U 06021A   26117.26423685  .00003076  00000+0  17989-3 0  9997
2 29228  69.9312 111.3487 0003422 338.1087  21.9933 15.12995223 94875
CZ-4B R/B               
1 29507U 06046C   26117.08629543  .00005065  00000+0  25330-3 0  9994
2 29507  97.5507 161.8551 0034609  99.6604 260.8542 15.17362078 67382
CZ-2C R/B               
1 31114U 07010B   26117.26608772  .00000131  00000+0  78936-4 0  9994
2 31114  98.4037 228.1231 0059634 152.0413 208.3990 14.20262896986616
COSMO-SKYMED 1          
1 31598U 07023A   26117.26771569  .00003543  00000+0  31434-3 0  9990
2 31598  97.8868 308.7002 0001520 100.8957 259.2435 14.96847907 22179
COSMOS 2428             
1 31792U 07029A   26117.24166496 -.00000171  00000+0 -65890-4 0  9997
2 31792  70.9392 101.4336 0009024 223.0528 136.9888 14.12945009970957
SL-16 R/B               
1 31793U 07029B   26117.29401336  .00000358  00000+0  21017-3 0  9995
2 31793  70.9752  70.2112 0002489 267.8259 243.9178 14.14845817972241
KORONAS-FOTON           
1 33504U 09003A   26117.30658737  .00018312  00000+0  39182-3 0  9993
2 33504  82.4314 225.2836 0009660 345.7203  14.3771 15.44617105953242
CZ-2C R/B               
1 37731U 11030B   26117.33274981  .00001081  00000+0  14211-3 0  9991
2 37731  97.8618  73.6545 0052034 190.4779 324.9991 14.81359311797290
H-2A R/B                
1 38341U 12025E   26117.17564728  .00002654  00000+0  24147-3 0  9993
2 38341  98.4787  88.1406 0044733 152.7162 207.6420 14.95445545755460
SHIJIAN-16 (SJ-16)      
1 39358U 13057A   26117.22957233  .00001547  00000+0  15326-3 0  9990
2 39358  74.9706  93.1844 0016230 348.8704  11.2122 14.92478639678742
SL-4 R/B                
1 39679U 14021B   26116.97291519  .00014856  00000+0  31581-3 0  9995
2 39679  51.6052 101.4350 0092686 279.6416  79.4108 15.40714856663718
ALOS-2                  
1 39766U 14029A   26117.27927154 -.00000329  00000+0 -37132-4 0  9996
2 39766  97.9198 215.1714 0001685  85.6597 274.4807 14.79476909644054
YAOGAN-29               
1 41038U 15069A   26117.23864839  .00000893  00000+0  11648-3 0  9999
2 41038  98.0077 145.7832 0001885 138.4203 221.7154 14.83043376563074
ASTRO-H (HITOMI)        
1 41337U 16012A   26117.14863173  .00003608  00000+0  20916-3 0  9995
2 41337  30.9998  43.7537 0009387  99.6219 260.5480 15.10283805559568
