[{"OBJECT_NAME":"ALOS (DAICHI)","OBJECT_ID":"2006-002A","EPOCH":"2026-04-27T07:28:43.166208","MEAN_MOTION":14.69942913,"ECCENTRICITY":0.00019593,"INCLINATION":98.129,"RA_OF_ASC_NODE":73.0534,"ARG_OF_PERICENTER":102.8377,"MEAN_ANOMALY":257.3048,"EPHEMERIS_TYPE":0,"CLASSIFICATION_TYPE":"U","NORAD_CAT_ID":28931,"ELEMENT_SET_NO":999,"REV_AT_EPOCH":8062,"BSTAR":0.00021848807,"MEAN_MOTION_DOT":1.259e-5,"MEAN_MOTION_DDOT":0},{"OBJECT_NAME":"H-2A R/B","OBJECT_ID":"2006-002B","EPOCH":"2026-04-27T06:57:13.533408","MEAN_MOTION":15.1741317,"ECCENTRICITY":0.00524116,"INCLINATION":98.2498,"RA_OF_ASC_NODE":268.5606,"ARG_OF_PERICENTER":76.8225,"MEAN_ANOMALY":283.8847,"EPHEMERIS_TYPE":0,"CLASSIFICATION_TYPE":"U","NORAD_CAT_ID":28932,"ELEMENT_SET_NO":999,"REV_AT_EPOCH":10180,"BSTAR":0.00052039144,"MEAN_MOTION_DOT":0.00010707,"MEAN_MOTION_DDOT":0},{"OBJECT_NAME":"RESURS-DK 1","OBJECT_ID":"2006-021A","EPOCH":"2026-04-27T06:20:30.063840","MEAN_MOTION":15.12995223,"ECCENTRICITY":0.00034222,"INCLINATION":69.9312,"RA_OF_ASC_NODE":111.3487,"ARG_OF_PERICENTER":338.1087,"MEAN_ANOMALY":21.9933,"EPHEMERIS_TYPE":0,"CLASSIFICATION_TYPE":"U","NORAD_CAT_ID":29228,"ELEMENT_SET_NO":999,"REV_AT_EPOCH":9487,"BSTAR":0.00017989285,"MEAN_MOTION_DOT":3.076e-5,"MEAN_MOTION_DDOT":0},{"OBJECT_NAME":"CZ-4B R/B","OBJECT_ID":"2006-046C","EPOCH":"2026-04-27T02:04:15.925152","MEAN_MOTION":15.17362078,"ECCENTRICITY":0.00346094,"INCLINATION":97.5507,"RA_OF_ASC_NODE":161.8551,"ARG_OF_PERICENTER":99.6604,"MEAN_ANOMALY":260.8542,"EPHEMERIS_TYPE":0,"CLASSIFICATION_TYPE":"U","NORAD_CAT_ID":29507,"ELEMENT_SET_NO":999,"REV_AT_EPOCH":6738,"BSTAR":0.00025329882,"MEAN_MOTION_DOT":5.065e-5,"MEAN_MOTION_DDOT":0},{"OBJECT_NAME":"CZ-2C R/B","OBJECT_ID":"2007-010B","EPOCH":"2026-04-27T06:23:09.979008","MEAN_MOTION":14.20262896,"ECCENTRICITY":0.00596349,"INCLINATION":98.4037,"RA_OF_ASC_NODE":228.1231,"ARG_OF_PERICENTER":152.0413,"MEAN_ANOMALY":208.399,"EPHEMERIS_TYPE":0,"CLASSIFICATION_TYPE":"U","NORAD_CAT_ID":31114,"ELEMENT_SET_NO":999,"REV_AT_EPOCH":98661,"BSTAR":7.8935609e-5,"MEAN_MOTION_DOT":1.31e-6,"MEAN_MOTION_DDOT":0},{"OBJECT_NAME":"COSMO-SKYMED 1","OBJECT_ID":"2007-023A","EPOCH":"2026-04-27T06:25:30.635616","MEAN_MOTION":14.96847907,"ECCENTRICITY":0.00015209,"INCLINATION":97.8868,"RA_OF_ASC_NODE":308.7002,"ARG_OF_PERICENTER":100.8957,"MEAN_ANOMALY":259.2435,"EPHEMERIS_TYPE":0,"CLASSIFICATION_TYPE":"U","NORAD_CAT_ID":31598,"ELEMENT_SET_NO":999,"REV_AT_EPOCH":2217,"BSTAR":0.00031434348,"MEAN_MOTION_DOT":3.543e-5,"MEAN_MOTION_DDOT":0},{"OBJECT_NAME":"COSMOS 2428","OBJECT_ID":"2007-029A","EPOCH":"2026-04-27T05:47:59.852544","MEAN_MOTION":14.12945009,"ECCENTRICITY":0.00090248,"INCLINATION":70.9392,"RA_OF_ASC_NODE":101.4336,"ARG_OF_PERICENTER":223.0528,"MEAN_ANOMALY":136.9888,"EPHEMERIS_TYPE":0,"CLASSIFICATION_TYPE":"U","NORAD_CAT_ID":31792,"ELEMENT_SET_NO":999,"REV_AT_EPOCH":97095,"BSTAR":-6.589036e-5,"MEAN_MOTION_DOT":-1.71e-6,"MEAN_MOTION_DDOT":0},{"OBJECT_NAME":"SL-16 R/B","OBJECT_ID":"2007-029B","EPOCH":"2026-04-27T07:03:22.754304","MEAN_MOTION":14.14845817,"ECCENTRICITY":0.00024892,"INCLINATION":70.9752,"RA_OF_ASC_NODE":70.2112,"ARG_OF_PERICENTER":267.8259,"MEAN_ANOMALY":243.9178,"EPHEMERIS_TYPE":0,"CLASSIFICATION_TYPE":"U","NORAD_CAT_ID":31793,"ELEMENT_SET_NO":999,"REV_AT_EPOCH":97224,"BSTAR":0.00021016859,"MEAN_MOTION_DOT":3.58e-6,"MEAN_MOTION_DDOT":0},{"OBJECT_NAME":"KORONAS-FOTON","OBJECT_ID":"2009-003A","EPOCH":"2026-04-27T07:21:29.148768","MEAN_MOTION":15.44617105,"ECCENTRICITY":0.00096606,"INCLINATION":82.4314,"RA_OF_ASC_NODE":225.2836,"ARG_OF_PERICENTER":345.7203,"MEAN_ANOMALY":14.3771,"EPHEMERIS_TYPE":0,"CLASSIFICATION_TYPE":"U","NORAD_CAT_ID":33504,"ELEMENT_SET_NO":999,"REV_AT_EPOCH":95324,"BSTAR":0.00039182306,"MEAN_MOTION_DOT":0.00018312,"MEAN_MOTION_DDOT":0},{"OBJECT_NAME":"CZ-2C R/B","OBJECT_ID":"2011-030B","EPOCH":"2026-04-27T07:59:09.583584","MEAN_MOTION":14.81359311,"ECCENTRICITY":0.00520348,"INCLINATION":97.8618,"RA_OF_ASC_NODE":73.6545,"ARG_OF_PERICENTER":190.4779,"MEAN_ANOMALY":324.9991,"EPHEMERIS_TYPE":0,"CLASSIFICATION_TYPE":"U","NORAD_CAT_ID":37731,"ELEMENT_SET_NO":999,"REV_AT_EPOCH":79729,"BSTAR":0.00014210986,"MEAN_MOTION_DOT":1.081e-5,"MEAN_MOTION_DDOT":0},{"OBJECT_NAME":"H-2A R/B","OBJECT_ID":"2012-025E","EPOCH":"2026-04-27T04:12:55.924992","MEAN_MOTION":14.95445545,"ECCENTRICITY":0.00447337,"INCLINATION":98.4787,"RA_OF_ASC_NODE":88.1406,"ARG_OF_PERICENTER":152.7162,"MEAN_ANOMALY":207.642,"EPHEMERIS_TYPE":0,"CLASSIFICATION_TYPE":"U","NORAD_CAT_ID":38341,"ELEMENT_SET_NO":999,"REV_AT_EPOCH":75546,"BSTAR":0.00024146935,"MEAN_MOTION_DOT":2.654e-5,"MEAN_MOTION_DDOT":0},{"OBJECT_NAME":"SHIJIAN-16 (SJ-16)","OBJECT_ID":"2013-057A","EPOCH":"2026-04-27T05:30:35.049312","MEAN_MOTION":14.92478639,"ECCENTRICITY":0.00162308,"INCLINATION":74.9706,"RA_OF_ASC_NODE":93.1844,"ARG_OF_PERICENTER":348.8704,"MEAN_ANOMALY":11.2122,"EPHEMERIS_TYPE":0,"CLASSIFICATION_TYPE":"U","NORAD_CAT_ID":39358,"ELEMENT_SET_NO":999,"REV_AT_EPOCH":67874,"BSTAR":0.00015325938,"MEAN_MOTION_DOT":1.547e-5,"MEAN_MOTION_DDOT":0},{"OBJECT_NAME":"SL-4 R/B","OBJECT_ID":"2014-021B","EPOCH":"2026-04-26T23:20:59.872416","MEAN_MOTION":15.40714856,"ECCENTRICITY":0.00926864,"INCLINATION":51.6052,"RA_OF_ASC_NODE":101.435,"ARG_OF_PERICENTER":279.6416,"MEAN_ANOMALY":79.4108,"EPHEMERIS_TYPE":0,"CLASSIFICATION_TYPE":"U","NORAD_CAT_ID":39679,"ELEMENT_SET_NO":999,"REV_AT_EPOCH":66371,"BSTAR":0.00031580628,"MEAN_MOTION_DOT":0.00014856,"MEAN_MOTION_DDOT":0},{"OBJECT_NAME":"ALOS-2","OBJECT_ID":"2014-029A","EPOCH":"2026-04-27T06:42:09.061056","MEAN_MOTION":14.79476909,"ECCENTRICITY":0.00016851,"INCLINATION":97.9198,"RA_OF_ASC_NODE":215.1714,"ARG_OF_PERICENTER":85.6597,"MEAN_ANOMALY":274.4807,"EPHEMERIS_TYPE":0,"CLASSIFICATION_TYPE":"U","NORAD_CAT_ID":39766,"ELEMENT_SET_NO":999,"REV_AT_EPOCH":64405,"BSTAR":-3.7132242e-5,"MEAN_MOTION_DOT":-3.29e-6,"MEAN_MOTION_DDOT":0},{"OBJECT_NAME":"YAOGAN-29","OBJECT_ID":"2015-069A","EPOCH":"2026-04-27T05:43:39.220896","MEAN_MOTION":14.83043376,"ECCENTRICITY":0.00018853,"INCLINATION":98.0077,"RA_OF_ASC_NODE":145.7832,"ARG_OF_PERICENTER":138.4203,"MEAN_ANOMALY":221.7154,"EPHEMERIS_TYPE":0,"CLASSIFICATION_TYPE":"U","NORAD_CAT_ID":41038,"ELEMENT_SET_NO":999,"REV_AT_EPOCH":56307,"BSTAR":0.00011647961,"MEAN_MOTION_DOT":8.93e-6,"MEAN_MOTION_DDOT":0},{"OBJECT_NAME":"ASTRO-H (HITOMI)","OBJECT_ID":"2016-012A","EPOCH":"2026-04-27T03:34:01.781472","MEAN_MOTION":15.10283805,"ECCENTRICITY":0.00093871,"INCLINATION":30.9998,"RA_OF_ASC_NODE":43.7537,"ARG_OF_PERICENTER":99.6219,"MEAN_ANOMALY":260.548,"EPHEMERIS_TYPE":0,"CLASSIFICATION_TYPE":"U","NORAD_CAT_ID":41337,"ELEMENT_SET_NO":999,"REV_AT_EPOCH":55956,"BSTAR":0.00020916265,"MEAN_MOTION_DOT":3.608e-5,"MEAN_MOTION_DDOT":0}]
